CZ-4 DEB                
1 20898U 90081BJ  26065.84983954  .10467028  28365-5  61840-2 0  9992
2 20898  98.0719 155.7725 0015132 295.1511  64.8204 16.18322014867701
IRIDIUM 51              
1 25262U 98018A   26066.06519948  .00866302  38329-3  12962-2 0  9990
2 25262  86.3496 281.9390 0016426 290.4017  69.5508 16.04580998487933
FENGYUN 1C DEB          
1 30490U 99025AHC 26065.07799252  .03007822  99151-2  71770-2 0  9994
2 30490  98.3260 214.1666 0022320 276.5224  83.3509 15.98614735  7755
CZ-2D DEB               
1 31409U 05024J   26060.90543068  .00239460  23346-4  72484-3 0  9991
2 31409  97.1482 103.0739 0004089 145.2826 214.8716 15.92111318117181
ZIYUAN 3-01 (ZY 3-01)   
1 38046U 12001A   26066.18874334  .00545159  13415-3  10284-2 0  9996
2 38046  97.1563 140.9691 0002853 234.7201 125.3811 16.00834877788302
HUMSAT-D                
1 39433U 13066T   26065.99534918  .01755062  23802-2  20528-2 0  9997
2 39433  97.4816  78.9732 0007022 174.1702 185.9664 16.09299781671036
H-2A DEB                
1 43675U 18084E   26066.16865248  .02615446  11194-1  28413-2 0  9991
2 43675  97.9979 282.7351 0003636 289.2048  70.8841 16.12752758402723
SPACEBEE-7              
1 43816U 18099BL  26066.16647910  .04186443  24635-5  18150-2 0  9995
2 43816  97.4298 153.0701 0010082 277.0464  82.9679 16.22510522398817
STARLINK-1112           
1 44925U 20001M   26065.99495315  .00945630  53731-3  90951-3 0  9997
2 44925  53.0316 254.9103 0006070 291.9885  68.0504 16.11161590340891
STARLINK-1298           
1 45413U 20019BF  26066.25001156  .00207935  27886-4  53612-3 0  9990
2 45413  53.0347  66.4017 0006811  11.2474  90.6016 15.94758926  6060
STARLINK-1398           
1 45699U 20035AU  26066.25001156  .00302256  46255-4  82724-3 0  9993
2 45699  53.0349 311.7054 0003681 169.4143 132.4668 15.93578050  5992
STARLINK-1484           
1 45756U 20038AC  26066.14995409  .00522721  13163-3  95849-3 0  9995
2 45756  52.9980  69.7379 0006551  54.4447 305.7192 16.00720137318295
STARLINK-1587           
1 46157U 20057AS  26066.25001156  .00509838  11533-3  13479-2 0  9992
2 46157  53.0317 228.8262 0004434 285.4534 128.1571 15.94153622  6032
STARLINK-1738           
1 46336U 20062M   26066.12601950  .01018319  57123-3  14065-2 0  9998
2 46336  53.0255 293.5779 0004659 195.9908 164.0977 16.05551154305242
STARLINK-1726           
1 46362U 20062AP  26066.16670139  .00442497  87619-4  12348-2 0  9999
2 46362  53.0355 273.1194 0005801 188.0746 194.1384 15.93134419  6027
STARLINK-1712           
1 46581U 20070BB  26066.16670139  .00573295  15465-3  11382-2 0  9998
2 46581  53.0283  93.3515 0006037 359.3956 341.4944 15.99338256  6027
