[{"OBJECT_NAME":"CZ-4 DEB","OBJECT_ID":"1990-081BJ","EPOCH":"2026-03-06T20:23:46.136256","MEAN_MOTION":16.18322014,"ECCENTRICITY":0.0015132,"INCLINATION":98.0719,"RA_OF_ASC_NODE":155.7725,"ARG_OF_PERICENTER":295.1511,"MEAN_ANOMALY":64.8204,"EPHEMERIS_TYPE":0,"CLASSIFICATION_TYPE":"U","NORAD_CAT_ID":20898,"ELEMENT_SET_NO":999,"REV_AT_EPOCH":86770,"BSTAR":0.006184,"MEAN_MOTION_DOT":0.10467028,"MEAN_MOTION_DDOT":2.8365e-6},{"OBJECT_NAME":"IRIDIUM 51","OBJECT_ID":"1998-018A","EPOCH":"2026-03-07T01:33:53.235072","MEAN_MOTION":16.04580998,"ECCENTRICITY":0.0016426,"INCLINATION":86.3496,"RA_OF_ASC_NODE":281.939,"ARG_OF_PERICENTER":290.4017,"MEAN_ANOMALY":69.5508,"EPHEMERIS_TYPE":0,"CLASSIFICATION_TYPE":"U","NORAD_CAT_ID":25262,"ELEMENT_SET_NO":999,"REV_AT_EPOCH":48793,"BSTAR":0.0012962,"MEAN_MOTION_DOT":0.00866302,"MEAN_MOTION_DDOT":0.00038329},{"OBJECT_NAME":"FENGYUN 1C DEB","OBJECT_ID":"1999-025AHC","EPOCH":"2026-03-06T01:52:18.553728","MEAN_MOTION":15.98614735,"ECCENTRICITY":0.00223201,"INCLINATION":98.326,"RA_OF_ASC_NODE":214.1666,"ARG_OF_PERICENTER":276.5224,"MEAN_ANOMALY":83.3509,"EPHEMERIS_TYPE":0,"CLASSIFICATION_TYPE":"U","NORAD_CAT_ID":30490,"ELEMENT_SET_NO":999,"REV_AT_EPOCH":775,"BSTAR":0.0071770465,"MEAN_MOTION_DOT":0.03007822,"MEAN_MOTION_DDOT":0.0099151134},{"OBJECT_NAME":"CZ-2D DEB","OBJECT_ID":"2005-024J","EPOCH":"2026-03-01T21:43:49.210752","MEAN_MOTION":15.92111318,"ECCENTRICITY":0.0004089,"INCLINATION":97.1482,"RA_OF_ASC_NODE":103.0739,"ARG_OF_PERICENTER":145.2826,"MEAN_ANOMALY":214.8716,"EPHEMERIS_TYPE":0,"CLASSIFICATION_TYPE":"U","NORAD_CAT_ID":31409,"ELEMENT_SET_NO":999,"REV_AT_EPOCH":11718,"BSTAR":0.00072484,"MEAN_MOTION_DOT":0.0023946,"MEAN_MOTION_DDOT":2.3346e-5},{"OBJECT_NAME":"ZIYUAN 3-01 (ZY 3-01)","OBJECT_ID":"2012-001A","EPOCH":"2026-03-07T04:31:47.424576","MEAN_MOTION":16.00834877,"ECCENTRICITY":0.0002853,"INCLINATION":97.1563,"RA_OF_ASC_NODE":140.9691,"ARG_OF_PERICENTER":234.7201,"MEAN_ANOMALY":125.3811,"EPHEMERIS_TYPE":0,"CLASSIFICATION_TYPE":"U","NORAD_CAT_ID":38046,"ELEMENT_SET_NO":999,"REV_AT_EPOCH":78830,"BSTAR":0.0010284,"MEAN_MOTION_DOT":0.00545159,"MEAN_MOTION_DDOT":0.00013415},{"OBJECT_NAME":"HUMSAT-D","OBJECT_ID":"2013-066T","EPOCH":"2026-03-06T23:53:18.169152","MEAN_MOTION":16.09299781,"ECCENTRICITY":0.0007022,"INCLINATION":97.4816,"RA_OF_ASC_NODE":78.9732,"ARG_OF_PERICENTER":174.1702,"MEAN_ANOMALY":185.9664,"EPHEMERIS_TYPE":0,"CLASSIFICATION_TYPE":"U","NORAD_CAT_ID":39433,"ELEMENT_SET_NO":999,"REV_AT_EPOCH":67103,"BSTAR":0.0020528,"MEAN_MOTION_DOT":0.01755062,"MEAN_MOTION_DDOT":0.0023802},{"OBJECT_NAME":"H-2A DEB","OBJECT_ID":"2018-084E","EPOCH":"2026-03-07T04:02:51.574272","MEAN_MOTION":16.12752758,"ECCENTRICITY":0.0003636,"INCLINATION":97.9979,"RA_OF_ASC_NODE":282.7351,"ARG_OF_PERICENTER":289.2048,"MEAN_ANOMALY":70.8841,"EPHEMERIS_TYPE":0,"CLASSIFICATION_TYPE":"U","NORAD_CAT_ID":43675,"ELEMENT_SET_NO":999,"REV_AT_EPOCH":40272,"BSTAR":0.0028413,"MEAN_MOTION_DOT":0.02615446,"MEAN_MOTION_DDOT":0.011194},{"OBJECT_NAME":"SPACEBEE-7","OBJECT_ID":"2018-099BL","EPOCH":"2026-03-07T03:59:43.794240","MEAN_MOTION":16.22510522,"ECCENTRICITY":0.0010082,"INCLINATION":97.4298,"RA_OF_ASC_NODE":153.0701,"ARG_OF_PERICENTER":277.0464,"MEAN_ANOMALY":82.9679,"EPHEMERIS_TYPE":0,"CLASSIFICATION_TYPE":"U","NORAD_CAT_ID":43816,"ELEMENT_SET_NO":999,"REV_AT_EPOCH":39881,"BSTAR":0.001815,"MEAN_MOTION_DOT":0.04186443,"MEAN_MOTION_DDOT":2.4635e-6},{"OBJECT_NAME":"STARLINK-1112","OBJECT_ID":"2020-001M","EPOCH":"2026-03-06T23:52:43.952160","MEAN_MOTION":16.1116159,"ECCENTRICITY":0.000607,"INCLINATION":53.0316,"RA_OF_ASC_NODE":254.9103,"ARG_OF_PERICENTER":291.9885,"MEAN_ANOMALY":68.0504,"EPHEMERIS_TYPE":0,"CLASSIFICATION_TYPE":"U","NORAD_CAT_ID":44925,"ELEMENT_SET_NO":999,"REV_AT_EPOCH":34089,"BSTAR":0.00090951,"MEAN_MOTION_DOT":0.0094563,"MEAN_MOTION_DDOT":0.00053731},{"OBJECT_NAME":"STARLINK-1298","OBJECT_ID":"2020-019BF","EPOCH":"2026-03-07T06:00:00.998784","MEAN_MOTION":15.94758926,"ECCENTRICITY":0.0006811,"INCLINATION":53.0347,"RA_OF_ASC_NODE":66.4017,"ARG_OF_PERICENTER":11.2474,"MEAN_ANOMALY":90.6016,"EPHEMERIS_TYPE":0,"CLASSIFICATION_TYPE":"U","NORAD_CAT_ID":45413,"ELEMENT_SET_NO":999,"REV_AT_EPOCH":606,"BSTAR":0.00053612,"MEAN_MOTION_DOT":0.00207935,"MEAN_MOTION_DDOT":2.7886e-5},{"OBJECT_NAME":"STARLINK-1398","OBJECT_ID":"2020-035AU","EPOCH":"2026-03-07T06:00:00.998784","MEAN_MOTION":15.9357805,"ECCENTRICITY":0.0003681,"INCLINATION":53.0349,"RA_OF_ASC_NODE":311.7054,"ARG_OF_PERICENTER":169.4143,"MEAN_ANOMALY":132.4668,"EPHEMERIS_TYPE":0,"CLASSIFICATION_TYPE":"U","NORAD_CAT_ID":45699,"ELEMENT_SET_NO":999,"REV_AT_EPOCH":599,"BSTAR":0.00082724,"MEAN_MOTION_DOT":0.00302256,"MEAN_MOTION_DDOT":4.6255e-5},{"OBJECT_NAME":"STARLINK-1484","OBJECT_ID":"2020-038AC","EPOCH":"2026-03-07T03:35:56.033376","MEAN_MOTION":16.00720137,"ECCENTRICITY":0.0006551,"INCLINATION":52.998,"RA_OF_ASC_NODE":69.7379,"ARG_OF_PERICENTER":54.4447,"MEAN_ANOMALY":305.7192,"EPHEMERIS_TYPE":0,"CLASSIFICATION_TYPE":"U","NORAD_CAT_ID":45756,"ELEMENT_SET_NO":999,"REV_AT_EPOCH":31829,"BSTAR":0.00095849,"MEAN_MOTION_DOT":0.00522721,"MEAN_MOTION_DDOT":0.00013163},{"OBJECT_NAME":"STARLINK-1587","OBJECT_ID":"2020-057AS","EPOCH":"2026-03-07T06:00:00.998784","MEAN_MOTION":15.94153622,"ECCENTRICITY":0.0004434,"INCLINATION":53.0317,"RA_OF_ASC_NODE":228.8262,"ARG_OF_PERICENTER":285.4534,"MEAN_ANOMALY":128.1571,"EPHEMERIS_TYPE":0,"CLASSIFICATION_TYPE":"U","NORAD_CAT_ID":46157,"ELEMENT_SET_NO":999,"REV_AT_EPOCH":603,"BSTAR":0.0013479,"MEAN_MOTION_DOT":0.00509838,"MEAN_MOTION_DDOT":0.00011533},{"OBJECT_NAME":"STARLINK-1738","OBJECT_ID":"2020-062M","EPOCH":"2026-03-07T03:01:28.084800","MEAN_MOTION":16.05551154,"ECCENTRICITY":0.0004659,"INCLINATION":53.0255,"RA_OF_ASC_NODE":293.5779,"ARG_OF_PERICENTER":195.9908,"MEAN_ANOMALY":164.0977,"EPHEMERIS_TYPE":0,"CLASSIFICATION_TYPE":"U","NORAD_CAT_ID":46336,"ELEMENT_SET_NO":999,"REV_AT_EPOCH":30524,"BSTAR":0.0014065,"MEAN_MOTION_DOT":0.01018319,"MEAN_MOTION_DDOT":0.00057123},{"OBJECT_NAME":"STARLINK-1726","OBJECT_ID":"2020-062AP","EPOCH":"2026-03-07T04:00:03.000096","MEAN_MOTION":15.93134419,"ECCENTRICITY":0.0005801,"INCLINATION":53.0355,"RA_OF_ASC_NODE":273.1194,"ARG_OF_PERICENTER":188.0746,"MEAN_ANOMALY":194.1384,"EPHEMERIS_TYPE":0,"CLASSIFICATION_TYPE":"U","NORAD_CAT_ID":46362,"ELEMENT_SET_NO":999,"REV_AT_EPOCH":602,"BSTAR":0.0012348,"MEAN_MOTION_DOT":0.00442497,"MEAN_MOTION_DDOT":8.7619e-5},{"OBJECT_NAME":"STARLINK-1712","OBJECT_ID":"2020-070BB","EPOCH":"2026-03-07T04:00:03.000096","MEAN_MOTION":15.99338256,"ECCENTRICITY":0.0006037,"INCLINATION":53.0283,"RA_OF_ASC_NODE":93.3515,"ARG_OF_PERICENTER":359.3956,"MEAN_ANOMALY":341.4944,"EPHEMERIS_TYPE":0,"CLASSIFICATION_TYPE":"U","NORAD_CAT_ID":46581,"ELEMENT_SET_NO":999,"REV_AT_EPOCH":602,"BSTAR":0.0011382,"MEAN_MOTION_DOT":0.00573295,"MEAN_MOTION_DDOT":0.00015465}]
